{"type": "FeatureCollection", "features": [ {"type": "Feature", "properties": {"norad_id": 35445, "name": "COSMOS 2251 DEB", "group": "cosmos-2251-debris", "lat": -21.23246138594579, "lon": -77.50943579866941, "alt_km": 618.126064928646, "timestamp": "2025-12-18T13:51:50.082133+00:00", "meta": {"OBJECT_NAME": "COSMOS 2251 DEB", "OBJECT_ID": "1993-036AKP", "EPOCH": "2025-12-17T06:42:04.647744", "MEAN_MOTION": 14.59249055, "ECCENTRICITY": 0.01438268, "INCLINATION": 74.0366, "RA_OF_ASC_NODE": 291.3504, "ARG_OF_PERICENTER": 17.2397, "MEAN_ANOMALY": 343.3577, "EPHEMERIS_TYPE": 0, "CLASSIFICATION_TYPE": "U", "NORAD_CAT_ID": 35445, "ELEMENT_SET_NO": 999, "REV_AT_EPOCH": 87395, "BSTAR": 0.0017069803, "MEAN_MOTION_DOT": 9.291e-05, "MEAN_MOTION_DDOT": 0}, "tle": {"line1": "1 35445U 93036AKP 25351.27922046  .00009291  00000+0  17070-2 0  9997", "line2": "2 35445  74.0366 291.3504 0143826  17.2397 343.3577 14.59249055873954"}}, "geometry": {"type": "Point", "coordinates": [-77.50943579866941, -21.23246138594579]}}, {"type": "Feature", "properties": {"norad_id": 35446, "name": "COSMOS 2251 DEB", "group": "cosmos-2251-debris", "lat": -72.01051460404138, "lon": -114.61172414970414, "alt_km": 760.7967169716512, "timestamp": "2025-12-18T13:51:50.082143+00:00", "meta": {"OBJECT_NAME": "COSMOS 2251 DEB", "OBJECT_ID": "1993-036AKQ", "EPOCH": "2025-12-18T05:59:12.750432", "MEAN_MOTION": 14.54634793, "ECCENTRICITY": 0.00745391, "INCLINATION": 74.0467, "RA_OF_ASC_NODE": 307.7629, "ARG_OF_PERICENTER": 64.3886, "MEAN_ANOMALY": 296.4954, "EPHEMERIS_TYPE": 0, "CLASSIFICATION_TYPE": "U", "NORAD_CAT_ID": 35446, "ELEMENT_SET_NO": 999, "REV_AT_EPOCH": 88088, "BSTAR": 9.8850262e-05, "MEAN_MOTION_DOT": 4.08e-06, "MEAN_MOTION_DDOT": 0}, "tle": {"line1": "1 35446U 93036AKQ 25352.24945313  .00000408  00000+0  98850-4 0  9996", "line2": "2 35446  74.0467 307.7629 0074539  64.3886 296.4954 14.54634793880886"}}, "geometry": {"type": "Point", "coordinates": [-114.61172414970414, -72.01051460404138]}}, {"type": "Feature", "properties": {"norad_id": 35448, "name": "COSMOS 2251 DEB", "group": "cosmos-2251-debris", "lat": 46.77970479542065, "lon": -119.5135070154706, "alt_km": 712.7334289791888, "timestamp": "2025-12-18T13:51:50.082154+00:00", "meta": {"OBJECT_NAME": "COSMOS 2251 DEB", "OBJECT_ID": "1993-036AKS", "EPOCH": "2025-12-17T15:48:08.057376", "MEAN_MOTION": 14.54306329, "ECCENTRICITY": 0.00121573, "INCLINATION": 73.9037, "RA_OF_ASC_NODE": 80.133, "ARG_OF_PERICENTER": 263.1799, "MEAN_ANOMALY": 96.798, "EPHEMERIS_TYPE": 0, "CLASSIFICATION_TYPE": "U", "NORAD_CAT_ID": 35448, "ELEMENT_SET_NO": 999, "REV_AT_EPOCH": 87406, "BSTAR": 0.00080210225, "MEAN_MOTION_DOT": 3.379e-05, "MEAN_MOTION_DDOT": 0}, "tle": {"line1": "1 35448U 93036AKS 25351.65842659  .00003379  00000+0  80210-3 0  9991", "line2": "2 35448  73.9037  80.1330 0012157 263.1799  96.7980 14.54306329874064"}}, "geometry": {"type": "Point", "coordinates": [-119.5135070154706, 46.77970479542065]}}, {"type": "Feature", "properties": {"norad_id": 35451, "name": "COSMOS 2251 DEB", "group": "cosmos-2251-debris", "lat": 61.63419794936187, "lon": 122.31474257480647, "alt_km": 451.6186220635809, "timestamp": "2025-12-18T13:51:50.082165+00:00", "meta": {"OBJECT_NAME": "COSMOS 2251 DEB", "OBJECT_ID": "1993-036AKV", "EPOCH": "2025-12-17T17:15:28.493856", "MEAN_MOTION": 15.36093817, "ECCENTRICITY": 0.00413048, "INCLINATION": 73.9333, "RA_OF_ASC_NODE": 91.9079, "ARG_OF_PERICENTER": 337.1935, "MEAN_ANOMALY": 22.7433, "EPHEMERIS_TYPE": 0, "CLASSIFICATION_TYPE": "U", "NORAD_CAT_ID": 35451, "ELEMENT_SET_NO": 999, "REV_AT_EPOCH": 67482, "BSTAR": 0.0011227563, "MEAN_MOTION_DOT": 0.00040788, "MEAN_MOTION_DDOT": 0}, "tle": {"line1": "1 35451U 93036AKV 25351.71907979  .00040788  00000+0  11228-2 0  9996", "line2": "2 35451  73.9333  91.9079 0041304 337.1935  22.7433 15.36093817674827"}}, "geometry": {"type": "Point", "coordinates": [122.31474257480647, 61.63419794936187]}}, {"type": "Feature", "properties": {"norad_id": 35453, "name": "COSMOS 2251 DEB", "group": "cosmos-2251-debris", "lat": -21.618718076436622, "lon": -163.87157161675907, "alt_km": 746.0796204861472, "timestamp": "2025-12-18T13:51:50.082175+00:00", "meta": {"OBJECT_NAME": "COSMOS 2251 DEB", "OBJECT_ID": "1993-036AKX", "EPOCH": "2025-12-16T19:11:22.117056", "MEAN_MOTION": 14.38003213, "ECCENTRICITY": 0.00669431, "INCLINATION": 74.0096, "RA_OF_ASC_NODE": 12.8823, "ARG_OF_PERICENTER": 145.8531, "MEAN_ANOMALY": 214.6957, "EPHEMERIS_TYPE": 0, "CLASSIFICATION_TYPE": "U", "NORAD_CAT_ID": 35453, "ELEMENT_SET_NO": 999, "REV_AT_EPOCH": 86277, "BSTAR": 0.00051941791, "MEAN_MOTION_DOT": 1.586e-05, "MEAN_MOTION_DDOT": 0}, "tle": {"line1": "1 35453U 93036AKX 25350.79956154  .00001586  00000+0  51942-3 0  9995", "line2": "2 35453  74.0096  12.8823 0066943 145.8531 214.6957 14.38003213862776"}}, "geometry": {"type": "Point", "coordinates": [-163.87157161675907, -21.618718076436622]}}, {"type": "Feature", "properties": {"norad_id": 35455, "name": "COSMOS 2251 DEB", "group": "cosmos-2251-debris", "lat": -61.718842898761224, "lon": -108.3172664429652, "alt_km": 736.2659111487874, "timestamp": "2025-12-18T13:51:50.082185+00:00", "meta": {"OBJECT_NAME": "COSMOS 2251 DEB", "OBJECT_ID": "1993-036AKZ", "EPOCH": "2025-12-15T06:39:23.942880", "MEAN_MOTION": 14.49440801, "ECCENTRICITY": 0.00992528, "INCLINATION": 74.0281, "RA_OF_ASC_NODE": 290.039, "ARG_OF_PERICENTER": 32.9545, "MEAN_ANOMALY": 327.7748, "EPHEMERIS_TYPE": 0, "CLASSIFICATION_TYPE": "U", "NORAD_CAT_ID": 35455, "ELEMENT_SET_NO": 999, "REV_AT_EPOCH": 86580, "BSTAR": 0.0011136115, "MEAN_MOTION_DOT": 4.513e-05, "MEAN_MOTION_DDOT": 0}, "tle": {"line1": "1 35455U 93036AKZ 25349.27736045  .00004513  00000+0  11136-2 0  9996", "line2": "2 35455  74.0281 290.0390 0099252  32.9545 327.7748 14.49440801865804"}}, "geometry": {"type": "Point", "coordinates": [-108.3172664429652, -61.718842898761224]}}, {"type": "Feature", "properties": {"norad_id": 35456, "name": "COSMOS 2251 DEB", "group": "cosmos-2251-debris", "lat": -2.8728956707349855, "lon": 105.27888257424361, "alt_km": 630.9870535848158, "timestamp": "2025-12-18T13:51:50.082195+00:00", "meta": {"OBJECT_NAME": "COSMOS 2251 DEB", "OBJECT_ID": "1993-036ALA", "EPOCH": "2025-12-16T14:29:43.540224", "MEAN_MOTION": 14.69499444, "ECCENTRICITY": 0.00664454, "INCLINATION": 73.9504, "RA_OF_ASC_NODE": 109.9489, "ARG_OF_PERICENTER": 318.8739, "MEAN_ANOMALY": 40.7432, "EPHEMERIS_TYPE": 0, "CLASSIFICATION_TYPE": "U", "NORAD_CAT_ID": 35456, "ELEMENT_SET_NO": 999, "REV_AT_EPOCH": 65932, "BSTAR": 0.0012425086, "MEAN_MOTION_DOT": 7.595e-05, "MEAN_MOTION_DDOT": 0}, "tle": {"line1": "1 35456U 93036ALA 25350.60397616  .00007595  00000+0  12425-2 0  9998", "line2": "2 35456  73.9504 109.9489 0066445 318.8739  40.7432 14.69499444659326"}}, "geometry": {"type": "Point", "coordinates": [105.27888257424361, -2.8728956707349855]}}, {"type": "Feature", "properties": {"norad_id": 35459, "name": "COSMOS 2251 DEB", "group": "cosmos-2251-debris", "lat": 61.6176429874994, "lon": -151.1790111976096, "alt_km": 754.0958086113906, "timestamp": "2025-12-18T13:51:50.082206+00:00", "meta": {"OBJECT_NAME": "COSMOS 2251 DEB", "OBJECT_ID": "1993-036ALD", "EPOCH": "2025-12-17T19:11:00.873024", "MEAN_MOTION": 14.37469257, "ECCENTRICITY": 0.00161114, "INCLINATION": 73.8694, "RA_OF_ASC_NODE": 177.8806, "ARG_OF_PERICENTER": 124.2019, "MEAN_ANOMALY": 236.0663, "EPHEMERIS_TYPE": 0, "CLASSIFICATION_TYPE": "U", "NORAD_CAT_ID": 35459, "ELEMENT_SET_NO": 999, "REV_AT_EPOCH": 58434, "BSTAR": 0.00020652063, "MEAN_MOTION_DOT": 5.92e-06, "MEAN_MOTION_DDOT": 0}, "tle": {"line1": "1 35459U 93036ALD 25351.79931566  .00000592  00000+0  20652-3 0  9992", "line2": "2 35459  73.8694 177.8806 0016111 124.2019 236.0663 14.37469257584349"}}, "geometry": {"type": "Point", "coordinates": [-151.1790111976096, 61.6176429874994]}}, {"type": "Feature", "properties": {"norad_id": 35462, "name": "COSMOS 2251 DEB", "group": "cosmos-2251-debris", "lat": -38.40126267244878, "lon": -115.02994501650059, "alt_km": 744.9162391373557, "timestamp": "2025-12-18T13:51:50.082216+00:00", "meta": {"OBJECT_NAME": "COSMOS 2251 DEB", "OBJECT_ID": "1993-036ALG", "EPOCH": "2025-12-15T12:08:22.276032", "MEAN_MOTION": 14.29319782, "ECCENTRICITY": 0.00867718, "INCLINATION": 74.0367, "RA_OF_ASC_NODE": 263.6601, "ARG_OF_PERICENTER": 298.2214, "MEAN_ANOMALY": 61.0193, "EPHEMERIS_TYPE": 0, "CLASSIFICATION_TYPE": "U", "NORAD_CAT_ID": 35462, "ELEMENT_SET_NO": 999, "REV_AT_EPOCH": 66420, "BSTAR": 0.0011070348, "MEAN_MOTION_DOT": 2.91e-05, "MEAN_MOTION_DDOT": 0}, "tle": {"line1": "1 35462U 93036ALG 25349.50581338  .00002910  00000+0  11070-2 0  9999", "line2": "2 35462  74.0367 263.6601 0086771 298.2214  61.0193 14.29319782664204"}}, "geometry": {"type": "Point", "coordinates": [-115.02994501650059, -38.40126267244878]}}, {"type": "Feature", "properties": {"norad_id": 35465, "name": "COSMOS 2251 DEB", "group": "cosmos-2251-debris", "lat": -25.586627427519108, "lon": 178.23962259161658, "alt_km": 704.6458406550155, "timestamp": "2025-12-18T13:51:50.082226+00:00", "meta": {"OBJECT_NAME": "COSMOS 2251 DEB", "OBJECT_ID": "1993-036ALK", "EPOCH": "2025-12-17T13:03:02.562624", "MEAN_MOTION": 14.44331537, "ECCENTRICITY": 0.00642719, "INCLINATION": 73.9967, "RA_OF_ASC_NODE": 188.0661, "ARG_OF_PERICENTER": 347.2721, "MEAN_ANOMALY": 12.6809, "EPHEMERIS_TYPE": 0, "CLASSIFICATION_TYPE": "U", "NORAD_CAT_ID": 35465, "ELEMENT_SET_NO": 999, "REV_AT_EPOCH": 87311, "BSTAR": 0.00028334394, "MEAN_MOTION_DOT": 9.72e-06, "MEAN_MOTION_DDOT": 0}, "tle": {"line1": "1 35465U 93036ALK 25351.54377966  .00000972  00000+0  28334-3 0  9997", "line2": "2 35465  73.9967 188.0661 0064271 347.2721  12.6809 14.44331537873113"}}, "geometry": {"type": "Point", "coordinates": [178.23962259161658, -25.586627427519108]}}]}